IRIDIUM 39              
1 25042U 97069D   25334.93384502  .00000856  00000+0  21775-3 0  9998
2 25042  86.3908 139.6950 0019721 107.5976 252.7384 14.49474284473111
IRIDIUM 38              
1 25043U 97069E   25334.94210368  .00000514  00000+0  16261-3 0  9993
2 25043  86.3971 163.0686 0000129  50.8482 309.2728 14.38295335469923
IRIDIUM 42              
1 25077U 97077A   25334.94467000  .00000481  00000+0  15713-3 0  9990
2 25077  86.3981 169.4391 0001330  75.7134 284.4211 14.36515445465134
IRIDIUM 44              
1 25078U 97077B   25334.93504177  .00000490  00000+0  14805-3 0  9998
2 25078  86.3963 150.9377 0002272 140.5211 219.6155 14.40415628467706
IRIDIUM 45              
1 25104U 97082A   25334.97399139  .00026786  00000+0  77231-3 0  9996
2 25104  86.3539 326.4739 0103345  64.4584 296.7305 15.30304433477476
IRIDIUM 24              
1 25105U 97082B   25334.83060076  .00000507  00000+0  14752-3 0  9999
2 25105  86.3921   9.6058 0009398 241.6158 118.4096 14.42309610467239
IRIDIUM 51              
1 25262U 98018A   25334.97497293  .00093714  00000+0  11095-2 0  9991
2 25262  86.3738 332.2735 0053055 325.3809  34.4005 15.59186664472816
IRIDIUM 57              
1 25273U 98019B   25334.78719488  .00000420  00000+0  13775-3 0  9996
2 25273  86.3960  75.4025 0001983  96.0710 264.0713 14.36036283448690
